ONEWEB-0328             
1 49197U 21083M   25232.77700101  .00000321  00000+0  84394-3 0  9997
2 49197  87.8995  19.8750 0001692  99.2775 260.8546 13.13470027191465
ONEWEB-0331             
1 49198U 21083N   25232.90400949  .00000015  00000+0  47187-5 0  9991
2 49198  87.9146  35.0818 0001951 103.6725 256.4624 13.18685600190437
ONEWEB-0333             
1 49199U 21083P   25232.92427240  .00000137  00000+0  34089-3 0  9997
2 49199  87.8983  19.9155 0001795  94.0100 266.1235 13.13470550191491
ONEWEB-0334             
1 49200U 21083Q   25232.84260000  .00000065  00000+0  12906-3 0  9994
2 49200  87.9292 334.3233 0001870  69.0167 291.1166 13.20772697197142
ONEWEB-0335             
1 49201U 21083R   25232.91919294 -.00000002  00000+0 -40698-4 0  9992
2 49201  87.8986  19.9035 0001937 100.1107 260.0241 13.13469844191505
ONEWEB-0336             
1 49202U 21083S   25232.89041035 -.00000276  00000+0 -79114-3 0  9996
2 49202  87.8989  19.9030 0001879  93.9172 266.2171 13.13469247191495
ONEWEB-0337             
1 49203U 21083T   25232.90041766 -.00000323  00000+0 -91972-3 0  9999
2 49203  87.8997  19.9026 0001719 102.4370 257.6951 13.13471195191494
ONEWEB-0338             
1 49204U 21083U   25232.81737338 -.00000009  00000+0 -53748-4 0  9998
2 49204  87.9302 334.3247 0001744  89.7278 270.4055 13.20772169197168
ONEWEB-0339             
1 49205U 21083V   25232.90903514 -.00000238  00000+0 -68563-3 0  9994
2 49205  87.8994  19.8861 0001644  95.5535 264.5781 13.13470384191476
ONEWEB-0340             
1 49206U 21083W   25232.89081360  .00000003  00000+0 -25250-4 0  9995
2 49206  87.9145  35.0883 0001850  95.1691 264.9652 13.18686574190394
ONEWEB-0341             
1 49207U 21083X   25232.89740408  .00000039  00000+0  67121-4 0  9992
2 49207  87.9148  35.0987 0001389 107.4622 252.6662 13.18685728190419
ONEWEB-0342             
1 49208U 21083Y   25232.82366909 -.00000100  00000+0 -27663-3 0  9993
2 49208  87.9291 334.2952 0001836  96.8166 263.3176 13.20773601197132
ONEWEB-0343             
1 49209U 21083Z   25232.89328034 -.00000002  00000+0 -38943-4 0  9993
2 49209  87.9146  35.0858 0001191  94.3071 265.8197 13.18685004190460
ONEWEB-0344             
1 49210U 21083AA  25232.90394054 -.00000297  00000+0 -84728-3 0  9999
2 49210  87.8993  19.9268 0001547 109.1633 250.9663 13.13471030191473
ONEWEB-0345             
1 49211U 21083AB  25232.89549326 -.00000265  00000+0 -76015-3 0  9997
2 49211  87.8995  19.8808 0001512 110.4855 249.6436 13.13469922191489
ONEWEB-0346             
1 49212U 21083AC  25232.90235524  .00000009  00000+0 -96559-5 0  9994
2 49212  87.9147  35.1063 0002350 101.4559 258.6837 13.18684652190406
ONEWEB-0348             
1 49213U 21083AD  25232.81419653 -.00000044  00000+0 -14087-3 0  9996
2 49213  87.9294 334.3088 0002106 117.5325 242.6022 13.20771022197169
ONEWEB-0350             
1 49214U 21083AE  25232.90479620 -.00000250  00000+0 -72003-3 0  9998
2 49214  87.8998  19.8710 0001638 105.8441 254.2868 13.13469910191517
ONEWEB-0351             
1 49215U 21083AF  25232.80774816 -.00000025  00000+0 -92544-4 0  9996
2 49215  87.9303 334.2943 0001202  77.8761 282.2507 13.20770347197122
ONEWEB-0352             
1 49216U 21083AG  25232.88532016 -.00000123  00000+0 -37282-3 0  9995
2 49216  87.8987  19.9139 0001422  84.6439 275.4853 13.13468187191609
ONEWEB-0354             
1 49217U 21083AH  25232.83315005  .00000046  00000+0  82368-4 0  9996
2 49217  87.9301 334.2881 0001810 109.0989 251.0340 13.20772962197166
ONEWEB-0355             
1 49218U 21083AJ  25232.91422288 -.00000395  00000+0 -11166-2 0  9993
2 49218  87.9000  19.9102 0001539  97.3416 262.7888 13.13469655191487
ONEWEB-0357             
1 49219U 21083AK  25232.82999338 -.00000019  00000+0 -78445-4 0  9997
2 49219  87.9292 334.2908 0001693  99.8374 260.2950 13.20773264197165
ONEWEB-0332             
1 49279U 21090A   25232.78173099  .00000192  00000+0  48401-3 0  9992
2 49279  87.9091 349.5103 0001818  91.0457 269.0881 13.14501532188114
ONEWEB-0347             
1 49280U 21090B   25232.82051908 -.00000014  00000+0 -66134-4 0  9992
2 49280  87.9301 334.3045 0002107  92.0361 268.1014 13.20772871191399
ONEWEB-0349             
1 49281U 21090C   25232.77633644  .00000039  00000+0  64568-4 0  9994
2 49281  87.9293 334.3164 0001794 100.1852 259.9483 13.20773036190176
ONEWEB-0353             
1 49282U 21090D   25232.77381363  .00000221  00000+0  56126-3 0  9996
2 49282  87.9085 349.4986 0001905  91.1699 268.9649 13.14502277188112
ONEWEB-0356             
1 49283U 21090E   25232.77475082  .00000048  00000+0  87329-4 0  9996
2 49283  87.9293 334.3080 0002839 103.1700 256.9750 13.20772680190179
ONEWEB-0358             
1 49284U 21090F   25232.80473484 -.00000002  00000+0 -36703-4 0  9997
2 49284  87.9301 334.2930 0001972 103.8267 256.3085 13.20772909190905
ONEWEB-0359             
1 49285U 21090G   25232.80158446  .00000018  00000+0  12013-4 0  9999
2 49285  87.9291 334.3034 0001875 112.0574 248.0759 13.20772227190881
ONEWEB-0360             
1 49286U 21090H   25232.79211721  .00000026  00000+0  30907-4 0  9995
2 49286  87.9292 334.3141 0001825 104.5928 255.5408 13.20770743190195
ONEWEB-0361             
1 49287U 21090J   25232.77318126  .00000051  00000+0  94534-4 0  9995
2 49287  87.9297 334.3128 0002074 100.4686 259.6681 13.20772264190647
ONEWEB-0362             
1 49288U 21090K   25232.79109334  .00000058  00000+0  11136-3 0  9990
2 49288  87.9262   4.7087 0001613  97.1424 262.9892 13.19726451187295
ONEWEB-0363             
1 49289U 21090L   25232.78896731 -.00000018  00000+0 -76007-4 0  9991
2 49289  87.9298 334.3053 0002295 103.4765 256.6624 13.20772451190656
ONEWEB-0364             
1 49290U 21090M   25232.82684273  .00000093  00000+0  19761-3 0  9998
2 49290  87.9289 334.3253 0002081 101.7934 258.3433 13.20770742191796
ONEWEB-0365             
1 49291U 21090N   25232.80056653  .00000041  00000+0  70786-4 0  9990
2 49291  87.9262   4.6616 0001747  94.0925 266.0408 13.19726837186808
ONEWEB-0366             
1 49292U 21090P   25232.84675072  .00000192  00000+0  48270-3 0  9996
2 49292  87.9090 349.4977 0001902 100.4048 259.7296 13.14501870188101
ONEWEB-0367             
1 49293U 21090Q   25232.78739152  .00000009  00000+0 -10766-4 0  9998
2 49293  87.9298 334.3011 0001711  97.9410 262.1917 13.20771762190179
ONEWEB-0368             
1 49294U 21090R   25232.83629609 -.00000011  00000+0 -59557-4 0  9995
2 49294  87.9299 334.3272 0002557  86.2248 273.9178 13.20772541191333
ONEWEB-0369             
1 49295U 21090S   25232.79583836  .00000045  00000+0  80219-4 0  9996
2 49295  87.9265   4.6938 0001818  95.1835 264.9505 13.19725533186798
ONEWEB-0370             
1 49296U 21090T   25232.79685631 -.00000061  00000+0 -18194-3 0  9995
2 49296  87.9303 334.3062 0001637 106.7447 253.3866 13.20772282190219
ONEWEB-0371             
1 49297U 21090U   25232.87953511 -.00000008  00000+0 -51762-4 0  9990
2 49297  87.9265   4.6669 0001713  96.2615 263.8713 13.19726777186849
ONEWEB-0372             
1 49298U 21090V   25232.78566680  .00000053  00000+0  99443-4 0  9994
2 49298  87.9291 334.3136 0001904  95.7516 264.3834 13.20771455190184
ONEWEB-0373             
1 49299U 21090W   25232.81261922 -.00000029  00000+0 -10205-3 0  9993
2 49299  87.9296 334.3208 0001931 102.5091 257.6258 13.20772502191376
ONEWEB-0374             
1 49300U 21090X   25232.83408270 -.00000011  00000+0 -63999-4 0  9997
2 49300  87.9083 349.4778 0002429  98.6397 261.5008 13.14504170188100
ONEWEB-0375             
1 49301U 21090Y   25232.80000826 -.00000021  00000+0 -84460-4 0  9997
2 49301  87.9299 334.3023 0002448 108.3227 251.8173 13.20772791190873
ONEWEB-0376             
1 49302U 21090Z   25232.87797446  .00000104  00000+0  22841-3 0  9990
2 49302  87.9262   4.6488 0001740  89.7153 270.4179 13.19725954186842
ONEWEB-0377             
1 49303U 21090AA  25232.78594651 -.00000045  00000+0 -14166-3 0  9991
2 49303  87.9302 334.2990 0001904 107.3455 252.7886 13.20771182190863
ONEWEB-0378             
1 49304U 21090AB  25232.80802404 -.00000015  00000+0 -68812-4 0  9998
2 49304  87.9312 334.3056 0002025 100.7870 259.3492 13.20772869190131
ONEWEB-0379             
1 49305U 21090AC  25232.82931252 -.00000125  00000+0 -37108-3 0  9990
2 49305  87.9085 349.4853 0001949  96.8617 263.2735 13.14502475188104
ONEWEB-0380             
1 49306U 21090AD  25232.79897793  .00000072  00000+0  14641-3 0  9994
2 49306  87.9260   4.6930 0001884 104.0237 256.1105 13.19725364186800
ONEWEB-0381             
1 49307U 21090AE  25232.78265349  .00000009  00000+0 -94630-5 0  9999
2 49307  87.9301 334.3096 0002158 104.6829 255.4544 13.20770296190171
ONEWEB-0382             
1 49308U 21090AF  25232.84576890  .00000033  00000+0  49167-4 0  9993
2 49308  87.9298 334.2881 0002261 100.9551 259.1837 13.20772662190179
ONEWEB-0383             
1 49309U 21090AG  25232.82296846 -.00000197  00000+0 -56466-3 0  9994
2 49309  87.9089 349.4658 0001986  96.3125 263.8231 13.14503504188139
ONEWEB-0384             
1 49310U 21090AH  25232.84112942  .00000035  00000+0  54014-4 0  9999
2 49310  87.9311 334.3106 0002471  99.5923 260.5490 13.20788114190189
ONEWEB-0385             
1 49311U 21090AJ  25232.83788916  .00000038  00000+0  62456-4 0  9991
2 49311  87.9287 334.3030 0002048 100.6914 259.4450 13.20771218190159
ONEWEB-0386             
1 49312U 21090AK  25232.77948984  .00000038  00000+0  60671-4 0  9995
2 49312  87.9299 334.2882 0002234  98.8112 261.3274 13.20771016190165
ONEWEB-0387             
1 49313U 21090AL  25232.83946348 -.00000027  00000+0 -99154-4 0  9993
2 49313  87.9289 334.3320 0002109 107.9404 252.1960 13.20772663190170
ONEWEB-0388             
1 49314U 21090AM  25232.79426165  .00000049  00000+0  90265-4 0  9995
2 49314  87.9259   4.7002 0001986  97.8154 262.3205 13.19724528186797
